{
  "type": "FeatureCollection",
  "features": [
    {
      "type": "Feature",
      "properties": {
        "norad_id": 41330,
        "name": "COSMOS 2514 (751)",
        "group": "glo-ops",
        "lat": 43.14477606197902,
        "lon": -14.782891347156507,
        "alt_km": 19155.593605611848,
        "timestamp": "2025-12-10T16:57:11.897512+00:00",
        "meta_object_name": "COSMOS 2514 (751)",
        "meta_object_id": "2016-008A",
        "meta_epoch": "2025-12-10T04:09:27.217152",
        "meta_mean_motion": 2.13102572,
        "meta_eccentricity": 0.0012197,
        "meta_inclination": 65.1353,
        "meta_ra_of_asc_node": 319.4918,
        "meta_arg_of_pericenter": 220.0504,
        "meta_mean_anomaly": 139.8574,
        "meta_ephemeris_type": 0,
        "meta_classification_type": "U",
        "meta_norad_cat_id": 41330,
        "meta_element_set_no": 999,
        "meta_rev_at_epoch": 7659,
        "meta_bstar": 0,
        "meta_mean_motion_dot": -5e-07,
        "meta_mean_motion_ddot": 0,
        "tle_line1": "1 41330U 16008A   25344.17323168 -.00000050  00000+0  00000+0 0  9999",
        "tle_line2": "2 41330  65.1353 319.4918 0012197 220.0504 139.8574  2.13102572 76591"
      },
      "geometry": {
        "type": "Point",
        "coordinates": [
          -14.782891347156507,
          43.14477606197902
        ]
      }
    },
    {
      "type": "Feature",
      "properties": {
        "norad_id": 42939,
        "name": "COSMOS 2522 (752)",
        "group": "glo-ops",
        "lat": 6.3374089831689,
        "lon": 15.20519183898221,
        "alt_km": 19119.418333321893,
        "timestamp": "2025-12-10T16:57:11.897525+00:00",
        "meta_object_name": "COSMOS 2522 (752)",
        "meta_object_id": "2017-055A",
        "meta_epoch": "2025-12-10T00:16:43.890240",
        "meta_mean_motion": 2.13101818,
        "meta_eccentricity": 0.0006628,
        "meta_inclination": 64.076,
        "meta_ra_of_asc_node": 198.322,
        "meta_arg_of_pericenter": 225.9279,
        "meta_mean_anomaly": 134.088,
        "meta_ephemeris_type": 0,
        "meta_classification_type": "U",
        "meta_norad_cat_id": 42939,
        "meta_element_set_no": 999,
        "meta_rev_at_epoch": 6394,
        "meta_bstar": 0,
        "meta_mean_motion_dot": 4.5e-07,
        "meta_mean_motion_ddot": 0,
        "tle_line1": "1 42939U 17055A   25344.01161910  .00000045  00000+0  00000+0 0  9999",
        "tle_line2": "2 42939  64.0760 198.3220 0006628 225.9279 134.0880  2.13101818 63946"
      },
      "geometry": {
        "type": "Point",
        "coordinates": [
          15.20519183898221,
          6.3374089831689
        ]
      }
    },
    {
      "type": "Feature",
      "properties": {
        "norad_id": 43508,
        "name": "COSMOS 2527 (756)",
        "group": "glo-ops",
        "lat": -20.862137457549192,
        "lon": -89.78853780208921,
        "alt_km": 19112.62039963946,
        "timestamp": "2025-12-10T16:57:11.897537+00:00",
        "meta_object_name": "COSMOS 2527 (756)",
        "meta_object_id": "2018-053A",
        "meta_epoch": "2025-12-10T10:35:59.703936",
        "meta_mean_motion": 2.13102031,
        "meta_eccentricity": 0.0008586,
        "meta_inclination": 65.4714,
        "meta_ra_of_asc_node": 80.2084,
        "meta_arg_of_pericenter": 224.5475,
        "meta_mean_anomaly": 135.4001,
        "meta_ephemeris_type": 0,
        "meta_classification_type": "U",
        "meta_norad_cat_id": 43508,
        "meta_element_set_no": 999,
        "meta_rev_at_epoch": 5825,
        "meta_bstar": 0,
        "meta_mean_motion_dot": -1.9e-07,
        "meta_mean_motion_ddot": 0,
        "tle_line1": "1 43508U 18053A   25344.44166324 -.00000019  00000+0  00000+0 0  9994",
        "tle_line2": "2 43508  65.4714  80.2084 0008586 224.5475 135.4001  2.13102031 58254"
      },
      "geometry": {
        "type": "Point",
        "coordinates": [
          -89.78853780208921,
          -20.862137457549192
        ]
      }
    },
    {
      "type": "Feature",
      "properties": {
        "norad_id": 43687,
        "name": "COSMOS 2529 (757)",
        "group": "glo-ops",
        "lat": 45.03589637300111,
        "lon": -9.878318427515165,
        "alt_km": 19135.624401737437,
        "timestamp": "2025-12-10T16:57:11.897552+00:00",
        "meta_object_name": "COSMOS 2529 (757)",
        "meta_object_id": "2018-086A",
        "meta_epoch": "2025-12-10T01:40:33.584160",
        "meta_mean_motion": 2.13101882,
        "meta_eccentricity": 0.0007287,
        "meta_inclination": 64.2919,
        "meta_ra_of_asc_node": 198.9786,
        "meta_arg_of_pericenter": 254.1993,
        "meta_mean_anomaly": 105.7913,
        "meta_ephemeris_type": 0,
        "meta_classification_type": "U",
        "meta_norad_cat_id": 43687,
        "meta_element_set_no": 999,
        "meta_rev_at_epoch": 5525,
        "meta_bstar": 0,
        "meta_mean_motion_dot": 4.4e-07,
        "meta_mean_motion_ddot": 0,
        "tle_line1": "1 43687U 18086A   25344.06983315  .00000044  00000+0  00000+0 0  9990",
        "tle_line2": "2 43687  64.2919 198.9786 0007287 254.1993 105.7913  2.13101882 55255"
      },
      "geometry": {
        "type": "Point",
        "coordinates": [
          -9.878318427515165,
          45.03589637300111
        ]
      }
    },
    {
      "type": "Feature",
      "properties": {
        "norad_id": 44299,
        "name": "COSMOS 2534 (758)",
        "group": "glo-ops",
        "lat": -63.395347651467674,
        "lon": 92.43640563082892,
        "alt_km": 19114.945055105272,
        "timestamp": "2025-12-10T16:57:11.897564+00:00",
        "meta_object_name": "COSMOS 2534 (758)",
        "meta_object_id": "2019-030A",
        "meta_epoch": "2025-12-09T05:29:56.087232",
        "meta_mean_motion": 2.13102103,
        "meta_eccentricity": 0.00090056,
        "meta_inclination": 64.3653,
        "meta_ra_of_asc_node": 199.0114,
        "meta_arg_of_pericenter": 283.3894,
        "meta_mean_anomaly": 286.0531,
        "meta_ephemeris_type": 0,
        "meta_classification_type": "U",
        "meta_norad_cat_id": 44299,
        "meta_element_set_no": 999,
        "meta_rev_at_epoch": 5087,
        "meta_bstar": 0,
        "meta_mean_motion_dot": 4.4e-07,
        "meta_mean_motion_ddot": 0,
        "tle_line1": "1 44299U 19030A   25343.22912138  .00000044  00000+0  00000+0 0  9992",
        "tle_line2": "2 44299  64.3653 199.0114 0009005 283.3894 286.0531  2.13102103 50871"
      },
      "geometry": {
        "type": "Point",
        "coordinates": [
          92.43640563082892,
          -63.395347651467674
        ]
      }
    },
    {
      "type": "Feature",
      "properties": {
        "norad_id": 44850,
        "name": "COSMOS 2544 (759)",
        "group": "glo-ops",
        "lat": -55.887716376444246,
        "lon": -57.63013479162447,
        "alt_km": 19101.343658247548,
        "timestamp": "2025-12-10T16:57:11.897574+00:00",
        "meta_object_name": "COSMOS 2544 (759)",
        "meta_object_id": "2019-088A",
        "meta_epoch": "2025-12-09T10:44:40.843680",
        "meta_mean_motion": 2.13101756,
        "meta_eccentricity": 0.0013649,
        "meta_inclination": 65.4583,
        "meta_ra_of_asc_node": 80.0686,
        "meta_arg_of_pericenter": 249.1242,
        "meta_mean_anomaly": 110.7462,
        "meta_ephemeris_type": 0,
        "meta_classification_type": "U",
        "meta_norad_cat_id": 44850,
        "meta_element_set_no": 999,
        "meta_rev_at_epoch": 4667,
        "meta_bstar": 0,
        "meta_mean_motion_dot": -1.3e-07,
        "meta_mean_motion_ddot": 0,
        "tle_line1": "1 44850U 19088A   25343.44769495 -.00000013  00000+0  00000+0 0  9995",
        "tle_line2": "2 44850  65.4583  80.0686 0013649 249.1242 110.7462  2.13101756 46679"
      },
      "geometry": {
        "type": "Point",
        "coordinates": [
          -57.63013479162447,
          -55.887716376444246
        ]
      }
    },
    {
      "type": "Feature",
      "properties": {
        "norad_id": 45358,
        "name": "COSMOS 2545 (760)",
        "group": "glo-ops",
        "lat": 63.96114996242477,
        "lon": 61.1081157591016,
        "alt_km": 19150.113723148297,
        "timestamp": "2025-12-10T16:57:11.897585+00:00",
        "meta_object_name": "COSMOS 2545 (760)",
        "meta_object_id": "2020-018A",
        "meta_epoch": "2025-12-10T02:42:20.782656",
        "meta_mean_motion": 2.13102243,
        "meta_eccentricity": 0.00118681,
        "meta_inclination": 64.4713,
        "meta_ra_of_asc_node": 319.0621,
        "meta_arg_of_pericenter": 248.8052,
        "meta_mean_anomaly": 111.0655,
        "meta_ephemeris_type": 0,
        "meta_classification_type": "U",
        "meta_norad_cat_id": 45358,
        "meta_element_set_no": 999,
        "meta_rev_at_epoch": 4463,
        "meta_bstar": 0,
        "meta_mean_motion_dot": -5.1e-07,
        "meta_mean_motion_ddot": 0,
        "tle_line1": "1 45358U 20018A   25344.11274054 -.00000051  00000+0  00000+0 0  9993",
        "tle_line2": "2 45358  64.4713 319.0621 0011868 248.8052 111.0655  2.13102243 44631"
      },
      "geometry": {
        "type": "Point",
        "coordinates": [
          61.1081157591016,
          63.96114996242477
        ]
      }
    }
  ]
}